{
  "links" : {
    "next" : "https://api.nasa.gov/neo/rest/v1/neo/browse?page=34&size=20&api_key=jqAGvNAwUIBu4fl9FSOjdm3V4F7hIglRzI6pdX9d",
    "prev" : "https://api.nasa.gov/neo/rest/v1/neo/browse?page=32&size=20&api_key=jqAGvNAwUIBu4fl9FSOjdm3V4F7hIglRzI6pdX9d",
    "self" : "https://api.nasa.gov/neo/rest/v1/neo/browse?page=33&size=20&api_key=jqAGvNAwUIBu4fl9FSOjdm3V4F7hIglRzI6pdX9d"
  },
  "page" : {
    "size" : 20,
    "total_elements" : 20750,
    "total_pages" : 1038,
    "number" : 33
  },
  "near_earth_objects" : [ {
    "links" : {
      "self" : "https://api.nasa.gov/neo/rest/v1/neo/3384181?api_key=jqAGvNAwUIBu4fl9FSOjdm3V4F7hIglRzI6pdX9d"
    },
    "neo_reference_id" : "3384181",
    "name" : "(2007 RP12)",
    "designation" : "2007 RP12",
    "nasa_jpl_url" : "http://ssd.jpl.nasa.gov/sbdb.cgi?sstr=3384181",
    "absolute_magnitude_h" : 24.6,
    "estimated_diameter" : {
      "kilometers" : {
        "estimated_diameter_min" : 0.0319561887,
        "estimated_diameter_max" : 0.0714562102
      },
      "meters" : {
        "estimated_diameter_min" : 31.9561886721,
        "estimated_diameter_max" : 71.4562101727
      },
      "miles" : {
        "estimated_diameter_min" : 0.0198566489,
        "estimated_diameter_max" : 0.0444008168
      },
      "feet" : {
        "estimated_diameter_min" : 104.8431420431,
        "estimated_diameter_max" : 234.436392583
      }
    },
    "is_potentially_hazardous_asteroid" : false,
    "close_approach_data" : [ {
      "close_approach_date" : "2007-09-18",
      "epoch_date_close_approach" : 1190098800000,
      "relative_velocity" : {
        "kilometers_per_second" : "4.4413810586",
        "kilometers_per_hour" : "15988.9718109982",
        "miles_per_hour" : "9934.9252900061"
      },
      "miss_distance" : {
        "astronomical" : "0.1387672603",
        "lunar" : "53.9804649353",
        "kilometers" : "20759286",
        "miles" : "12899223"
      },
      "orbiting_body" : "Earth"
    } ],
    "orbital_data" : {
      "orbit_id" : "14",
      "orbit_determination_date" : "2017-04-06 09:06:05",
      "first_observation_date" : "2007-09-11",
      "last_observation_date" : "2007-11-02",
      "data_arc_in_days" : 52,
      "observations_used" : 52,
      "orbit_uncertainty" : "7",
      "minimum_orbit_intersection" : ".135221",
      "jupiter_tisserand_invariant" : "3.435",
      "epoch_osculation" : "2458600.5",
      "eccentricity" : ".4984971081654566",
      "semi_major_axis" : "2.273031116794241",
      "inclination" : ".3179408506518545",
      "ascending_node_longitude" : "17.45863470116794",
      "orbital_period" : "1251.718002694381",
      "perihelion_distance" : "1.139931678302214",
      "perihelion_argument" : "340.2897660516757",
      "aphelion_distance" : "3.406130555286268",
      "perihelion_time" : "2458125.543677962601",
      "mean_anomaly" : "136.5996778550857",
      "mean_motion" : ".2876047154591396",
      "equinox" : "J2000",
      "orbit_class" : {
        "orbit_class_type" : "AMO",
        "orbit_class_range" : "1.017 AU < q (perihelion) < 1.3 AU",
        "orbit_class_description" : "Near-Earth asteroid orbits similar to that of 1221 Amor"
      }
    },
    "is_sentry_object" : false
  }, {
    "links" : {
      "self" : "https://api.nasa.gov/neo/rest/v1/neo/3384184?api_key=jqAGvNAwUIBu4fl9FSOjdm3V4F7hIglRzI6pdX9d"
    },
    "neo_reference_id" : "3384184",
    "name" : "(2007 RS12)",
    "designation" : "2007 RS12",
    "nasa_jpl_url" : "http://ssd.jpl.nasa.gov/sbdb.cgi?sstr=3384184",
    "absolute_magnitude_h" : 23.2,
    "estimated_diameter" : {
      "kilometers" : {
        "estimated_diameter_min" : 0.0608912622,
        "estimated_diameter_max" : 0.1361570015
      },
      "meters" : {
        "estimated_diameter_min" : 60.8912622106,
        "estimated_diameter_max" : 136.1570015386
      },
      "miles" : {
        "estimated_diameter_min" : 0.0378360645,
        "estimated_diameter_max" : 0.0846040122
      },
      "feet" : {
        "estimated_diameter_min" : 199.7744887109,
        "estimated_diameter_max" : 446.7093369279
      }
    },
    "is_potentially_hazardous_asteroid" : false,
    "close_approach_data" : [ {
      "close_approach_date" : "1982-09-03",
      "epoch_date_close_approach" : 399884400000,
      "relative_velocity" : {
        "kilometers_per_second" : "6.1505394456",
        "kilometers_per_hour" : "22141.9420040997",
        "miles_per_hour" : "13758.1416858252"
      },
      "miss_distance" : {
        "astronomical" : "0.2394091186",
        "lunar" : "93.1301498413",
        "kilometers" : "35815096",
        "miles" : "22254468"
      },
      "orbiting_body" : "Earth"
    }, {
      "close_approach_date" : "2007-09-04",
      "epoch_date_close_approach" : 1188889200000,
      "relative_velocity" : {
        "kilometers_per_second" : "5.4549085534",
        "kilometers_per_hour" : "19637.6707921532",
        "miles_per_hour" : "12202.0849430465"
      },
      "miss_distance" : {
        "astronomical" : "0.1906281379",
        "lunar" : "74.1543502808",
        "kilometers" : "28517564",
        "miles" : "17719992"
      },
      "orbiting_body" : "Earth"
    }, {
      "close_approach_date" : "2032-09-04",
      "epoch_date_close_approach" : 1977894000000,
      "relative_velocity" : {
        "kilometers_per_second" : "5.4409787245",
        "kilometers_per_hour" : "19587.5234080348",
        "miles_per_hour" : "12170.9253087314"
      },
      "miss_distance" : {
        "astronomical" : "0.1843672582",
        "lunar" : "71.7188644409",
        "kilometers" : "27580948",
        "miles" : "17138008"
      },
      "orbiting_body" : "Earth"
    } ],
    "orbital_data" : {
      "orbit_id" : "12",
      "orbit_determination_date" : "2017-04-06 09:06:04",
      "first_observation_date" : "2007-09-12",
      "last_observation_date" : "2007-10-18",
      "data_arc_in_days" : 36,
      "observations_used" : 36,
      "orbit_uncertainty" : "6",
      "minimum_orbit_intersection" : ".161968",
      "jupiter_tisserand_invariant" : "3.569",
      "epoch_osculation" : "2458600.5",
      "eccentricity" : ".452894331081204",
      "semi_major_axis" : "2.136679160646767",
      "inclination" : "6.959732214005419",
      "ascending_node_longitude" : "172.3954919018552",
      "orbital_period" : "1140.794446458264",
      "perihelion_distance" : "1.168989281450501",
      "perihelion_argument" : "170.8253331597166",
      "aphelion_distance" : "3.104369039843033",
      "perihelion_time" : "2458910.542081159358",
      "mean_anomaly" : "262.1601572799624",
      "mean_motion" : ".3155695586682282",
      "equinox" : "J2000",
      "orbit_class" : {
        "orbit_class_type" : "AMO",
        "orbit_class_range" : "1.017 AU < q (perihelion) < 1.3 AU",
        "orbit_class_description" : "Near-Earth asteroid orbits similar to that of 1221 Amor"
      }
    },
    "is_sentry_object" : false
  }, {
    "links" : {
      "self" : "https://api.nasa.gov/neo/rest/v1/neo/3384187?api_key=jqAGvNAwUIBu4fl9FSOjdm3V4F7hIglRzI6pdX9d"
    },
    "neo_reference_id" : "3384187",
    "name" : "(2007 RV12)",
    "designation" : "2007 RV12",
    "nasa_jpl_url" : "http://ssd.jpl.nasa.gov/sbdb.cgi?sstr=3384187",
    "absolute_magnitude_h" : 25.6,
    "estimated_diameter" : {
      "kilometers" : {
        "estimated_diameter_min" : 0.0201629919,
        "estimated_diameter_max" : 0.0450858206
      },
      "meters" : {
        "estimated_diameter_min" : 20.1629919443,
        "estimated_diameter_max" : 45.0858206172
      },
      "miles" : {
        "estimated_diameter_min" : 0.0125286985,
        "estimated_diameter_max" : 0.0280150214
      },
      "feet" : {
        "estimated_diameter_min" : 66.1515504905,
        "estimated_diameter_max" : 147.9193637137
      }
    },
    "is_potentially_hazardous_asteroid" : false,
    "close_approach_data" : [ {
      "close_approach_date" : "2007-09-07",
      "epoch_date_close_approach" : 1189148400000,
      "relative_velocity" : {
        "kilometers_per_second" : "5.7327367467",
        "kilometers_per_hour" : "20637.8522882062",
        "miles_per_hour" : "12823.5588287468"
      },
      "miss_distance" : {
        "astronomical" : "0.0147535183",
        "lunar" : "5.739118576",
        "kilometers" : "2207095",
        "miles" : "1371425.25"
      },
      "orbiting_body" : "Earth"
    } ],
    "orbital_data" : {
      "orbit_id" : "10",
      "orbit_determination_date" : "2017-04-06 09:06:03",
      "first_observation_date" : "2007-09-12",
      "last_observation_date" : "2007-10-13",
      "data_arc_in_days" : 31,
      "observations_used" : 29,
      "orbit_uncertainty" : "7",
      "minimum_orbit_intersection" : ".0135704",
      "jupiter_tisserand_invariant" : "4.161",
      "epoch_osculation" : "2458600.5",
      "eccentricity" : ".3891309797984425",
      "semi_major_axis" : "1.667089086179852",
      "inclination" : "4.012744459593556",
      "ascending_node_longitude" : "163.3254534957049",
      "orbital_period" : "786.206516912345",
      "perihelion_distance" : "1.018373076663396",
      "perihelion_argument" : "190.1563348479977",
      "aphelion_distance" : "2.315805095696308",
      "perihelion_time" : "2458290.172867214536",
      "mean_anomaly" : "142.0972294169148",
      "mean_motion" : ".4578949579479723",
      "equinox" : "J2000",
      "orbit_class" : {
        "orbit_class_type" : "AMO",
        "orbit_class_range" : "1.017 AU < q (perihelion) < 1.3 AU",
        "orbit_class_description" : "Near-Earth asteroid orbits similar to that of 1221 Amor"
      }
    },
    "is_sentry_object" : false
  } ]
}